COSMOS 2413 (712)       
1 28509U 04053B   15344.37673795  .00000103  00000-0  00000+0 0  9993
2 28509  63.1313 196.8576 0005535 159.7238 157.3401  2.13101870 85252
COSMOS 2419 (714)       
1 28915U 05050A   15344.15234582 -.00000020  00000-0  00000+0 0  9994
2 28915  65.2397  84.5835 0014229 352.9006 150.2815  2.13113046 77507
COSMOS 2425 (716)       
1 29670U 06062A   15343.67071944 -.00000030  00000-0  10000-3 0  9990
2 29670  65.7127 323.5565 0022343 338.4499 218.1841  2.13104914 69697
COSMOS 2426 (717)       
1 29671U 06062B   15344.17018337 -.00000029  00000-0  10000-3 0  9992
2 29671  65.7295 323.6170 0016308 174.9633 267.1011  2.13103053 69713
COSMOS 2424 (715)       
1 29672U 06062C   15344.42687641 -.00000029  00000-0  10000-3 0  9991
2 29672  65.7147 323.5405 0015819 174.2185 281.6535  2.13102139 69717
COSMOS 2433 (720)       
1 32275U 07052A   15343.31241712 -.00000026  00000-0  10000-3 0  9993
2 32275  65.2544  84.3790 0002599 226.9020 246.5570  2.13104956 63205
COSMOS 2432 (719)       
1 32276U 07052B   15343.68884400 -.00000023  00000-0  10000-3 0  9998
2 32276  65.2670  84.4289 0010257 337.7287  18.7977  2.13104197 63203
COSMOS 2434 (721)       
1 32393U 07065A   15343.95538022 -.00000031  00000-0  00000+0 0  9992
2 32393  65.3327 322.9600 0001545 147.1087 353.2553  2.13102789 61920
COSMOS 2436 (723)       
1 32395U 07065C   15344.13120745 -.00000031  00000-0  10000-3 0  9999
2 32395  65.3453 322.9933 0017540 344.3311  22.9027  2.13102836 61866
COSMOS 2443 (725)       
1 33379U 08046B   15343.80314978 -.00000023  00000-0  10000-3 0  9999
2 33379  65.1830  83.7976 0019343 183.1979 214.1816  2.13101467 56085
COSMOS 2456 (730)       
1 36111U 09070A   15344.14680251  .00000100  00000-0  00000+0 0  9992
2 36111  64.1863 202.5773 0003823 339.4111 116.3964  2.13103022 46594
COSMOS 2457 (733)       
1 36112U 09070B   15343.19428051  .00000097  00000-0  00000+0 0  9990
2 36112  64.1689 202.5414 0007082 151.3581  64.8717  2.13101650 46572
COSMOS 2458 (734)       
1 36113U 09070C   15344.42788983  .00000100  00000-0  10000-3 0  9991
2 36113  64.1739 202.5032 0002496  51.6679  78.1446  2.13101923 46603
COSMOS 2459 (731)       
1 36400U 10007A   15343.79114438 -.00000023  00000-0  10000-3 0  9994
2 36400  65.1617  83.5378 0026982 353.9829 353.8095  2.13102295 44939
COSMOS 2461 (735)       
1 36401U 10007B   15343.45122030 -.00000026  00000-0  10000-3 0  9998
2 36401  65.1546  83.5323 0006371  87.4496 270.1197  2.13102224 44925
COSMOS 2460 (732)       
1 36402U 10007C   15343.50709711 -.00000025  00000-0  10000-3 0  9991
2 36402  65.1447  83.5096 0001511 160.7310 281.8602  2.13101951 44931
COSMOS 2466 (738)       
1 37137U 10041A   15344.08645159 -.00000032  00000-0  10000-3 0  9992
2 37137  64.9163 323.1550 0019327 161.0409 303.5106  2.13102316 41028
COSMOS 2465 (737)       
1 37138U 10041B   15343.47776782 -.00000032  00000-0  00000+0 0  9997
2 37138  64.9333 323.2455 0034272 172.9632   7.1114  2.13102742 41005
COSMOS 2464 (736)       
1 37139U 10041C   15343.67785212 -.00000032  00000-0  00000+0 0  9998
2 37139  64.9353 323.2303 0021310   6.4230 101.7239  2.13102920 41012
COSMOS 2471 (701K)      
1 37372U 11009A   15343.66615653 -.00000024  00000-0  00000+0 0  9993
2 37372  65.1425  83.4545 0008160 226.6656 109.8889  2.13102929 37208
COSMOS 2474 (742)       
1 37829U 11055A   15343.89476079  .00000099  00000-0  00000+0 0  9994
2 37829  64.5106 202.9196 0006274 251.1578 233.5451  2.13101938 32589
COSMOS 2476 (744)       
1 37867U 11064A   15343.90387688  .00000099  00000-0  00000+0 0  9995
2 37867  64.4911 203.0054 0015074 247.0076 290.4364  2.13102037 31938
COSMOS 2477 (745)       
1 37868U 11064B   15344.30821222  .00000100  00000-0  00000+0 0  9991
2 37868  64.4993 203.0301 0013151 248.1430  58.9138  2.13101971 31891
COSMOS 2475 (743)       
1 37869U 11064C   15344.37395919  .00000100  00000-0  00000+0 0  9998
2 37869  64.5067 203.0138 0018878 278.6555  34.8701  2.13102252 31904
COSMOS 2478 (746)       
1 37938U 11071A   15343.67012819 -.00000024  00000-0  00000+0 0  9996
2 37938  65.1694  83.6691 0014204 237.8645 224.5002  2.13088742 31501
COSMOS 2485 (747)       
1 39155U 13019A   15343.56547847  .00000099  00000-0  00000+0 0  9996
2 39155  64.6599 202.9254 0015348 240.8023  82.2390  2.13102124 20392
COSMOS 2492 (754)       
1 39620U 14012A   15343.63908733 -.00000025  00000-0  10000-3 0  9995
2 39620  65.0337  83.5202 0014150 332.0681  80.0324  2.13103646 13355
COSMOS 2500 (755)       
1 40001U 14032A   15343.80298610 -.00000023  00000-0  00000+0 0  9990
2 40001  64.9741  83.5532 0007261 196.6613 205.2673  2.13102921 11572
COSMOS 2501 (702K)      
1 40315U 14075A   15343.36199545 -.00000032  00000-0  00000+0 0  9993
2 40315  64.7036 324.7575 0019002 239.9392 345.9126  2.13101574  7969
